NORAD_CAT_ID,OBJECT_NAME,OBJECT_TYPE,EPOCH,MEAN_MOTION,ECCENTRICITY,INCLINATION,RA_OF_ASC_NODE,ARG_OF_PERICENTER,MEAN_ANOMALY,BSTAR,MEAN_MOTION_DOT,MEAN_MOTION_DDOT,TLE_LINE0,TLE_LINE1,TLE_LINE2,SEMIMAJOR_AXIS,PERIOD,APOGEE,PERIGEE,DECAYED
54085.0,STARLINK-5166,PAYLOAD,2023-09-06 21:56:09,15.08850085,0.0001402,53.2163,120.7348,92.9894,267.1259,1.2199e-05,-9.4e-07,0.0,0 STARLINK-5166,1 54085U 22136AL  23249.91399444 -.00000094  00000-0  12199-4 0  9999,2 54085  53.2163 120.7348 0001402  92.9894 267.1259 15.08850085 48887,6917.85,95.437,540.684,538.745,0.0
54085.0,STARLINK-5166,PAYLOAD,2023-09-07 01:06:55,15.08850469,0.0001405,53.2163,120.1403,87.0649,273.0504,2.0442e-05,3.7e-07,0.0,0 STARLINK-5166,1 54085U 22136AL  23250.04647354  .00000037  00000-0  20442-4 0  9997,2 54085  53.2163 120.1403 0001405  87.0649 273.0504 15.08850469 49379,6917.848,95.437,540.685,538.741,0.0
54085.0,STARLINK-5166,PAYLOAD,2023-09-08 00:57:42,15.08841453,0.0001515,53.2149,115.6806,85.1798,274.9368,9.2234e-07,-2.73e-06,0.0,0 STARLINK-5166,1 54085U 22136AL  23251.04007878 -.00000273  00000-0  92234-6 0  9992,2 54085  53.2149 115.6806 0001515  85.1798 274.9368 15.08841453 49523,6917.876,95.437,540.789,538.693,0.0
54085.0,STARLINK-5166,PAYLOAD,2023-09-08 18:26:57,15.08834738,0.0001535,53.2162,112.4076,91.4439,268.6729,-1.0551e-05,-4.56e-06,0.0,0 STARLINK-5166,1 54085U 22136AL  23251.76872490 -.00000456  00000-0 -10551-4 0  9995,2 54085  53.2162 112.4076 0001535  91.4439 268.6729 15.08834738 49637,6917.896,95.438,540.823,538.7,0.0
54085.0,STARLINK-5166,PAYLOAD,2023-09-08 21:37:44,15.0879719,0.0001484,53.2175,111.8122,82.7248,277.3912,0.00045968,7.027e-05,0.0,0 STARLINK-5166,1 54085U 22136AL  23251.90120767  .00007027  00000-0  45968-3 0  9992,2 54085  53.2175 111.8122 0001484  82.7248 277.3912 15.08797190 49181,6918.011,95.44,540.903,538.85,0.0
54085.0,STARLINK-5166,PAYLOAD,2023-09-09 07:10:02,15.08838166,0.0001309,53.2175,110.0285,89.1989,270.9153,-1.9697e-06,-3.19e-06,0.0,0 STARLINK-5166,1 54085U 22136AL  23252.29864178 -.00000319  00000-0 -19697-5 0  9997,2 54085  53.2175 110.0285 0001309  89.1989 270.9153 15.08838166 49243,6917.886,95.438,540.657,538.845,0.0
54085.0,STARLINK-5166,PAYLOAD,2023-09-10 00:39:17,15.08833198,0.0001336,53.2171,106.7594,89.2832,270.8313,7.8096e-05,9.55e-06,0.0,0 STARLINK-5166,1 54085U 22136AL  23253.02728502  .00000955  00000-0  78096-4 0  9990,2 54085  53.2171 106.7594 0001336  89.2832 270.8313 15.08833198 49823,6917.901,95.438,540.69,538.842,0.0
54085.0,STARLINK-5166,PAYLOAD,2023-09-10 13:22:22,15.0883311,0.0001333,53.217,104.3804,88.9501,271.1644,6.7468e-05,7.86e-06,0.0,0 STARLINK-5166,1 54085U 22136AL  23253.55720813  .00000786  00000-0  67468-4 0  9998,2 54085  53.2170 104.3804 0001333  88.9501 271.1644 15.08833110 49438,6917.901,95.438,540.689,538.844,0.0
54085.0,STARLINK-5166,PAYLOAD,2023-09-11 00:30:03,15.08851285,0.0001331,53.2166,102.2989,102.7871,257.327,3.212e-05,2.23e-06,0.0,0 STARLINK-5166,1 54085U 22136AL  23254.02087795  .00000223  00000-0  32120-4 0  9999,2 54085  53.2166 102.2989 0001331 102.7871 257.3270 15.08851285 49970,6917.846,95.437,540.632,538.79,0.0
54085.0,STARLINK-5166,PAYLOAD,2023-09-11 06:51:36,15.08841067,0.000118,53.216,101.1098,86.9621,273.1506,7.6653e-05,9.32e-06,0.0,0 STARLINK-5166,1 54085U 22136AL  23254.28584358  .00000932  00000-0  76653-4 0  9990,2 54085  53.2160 101.1098 0001180  86.9621 273.1506 15.08841067 50013,6917.877,95.437,540.558,538.926,0.0
54085.0,STARLINK-5166,PAYLOAD,2023-09-12 00:20:51,15.08841891,0.000138,53.2167,97.8371,83.6976,276.4174,5.4283e-05,5.76e-06,0.0,0 STARLINK-5166,1 54085U 22136AL  23255.01448516  .00000576  00000-0  54283-4 0  9996,2 54085  53.2167  97.8371 0001380  83.6976 276.4174 15.08841891 49654,6917.875,95.437,540.694,538.785,0.0
54085.0,STARLINK-5166,PAYLOAD,2023-09-12 17:50:06,15.08844188,0.0001384,53.2169,94.5651,85.2922,274.8228,-2.4917e-05,-6.85e-06,0.0,0 STARLINK-5166,1 54085U 22136AL  23255.74312676 -.00000685  00000-0 -24917-4 0  9997,2 54085  53.2169  94.5651 0001384  85.2922 274.8228 15.08844188 50234,6917.868,95.437,540.69,538.775,0.0
54085.0,STARLINK-5166,PAYLOAD,2023-09-12 21:00:52,15.0884715,0.0001428,53.2167,93.97,91.0876,269.028,1.317e-05,-7.8e-07,0.0,0 STARLINK-5166,1 54085U 22136AL  23255.87560339 -.00000078  00000-0  13170-4 0  9996,2 54085  53.2167  93.9700 0001428  91.0876 269.0280 15.08847150 49786,6917.859,95.437,540.711,538.736,0.0
54085.0,STARLINK-5166,PAYLOAD,2023-09-13 12:54:43,15.08844329,0.000143,53.2171,90.9961,84.8016,275.3139,6.7629e-05,7.89e-06,0.0,0 STARLINK-5166,1 54085U 22136AL  23256.53800163  .00000789  00000-0  67629-4 0  9998,2 54085  53.2171  90.9961 0001430  84.8016 275.3139 15.08844329 49885,6917.867,95.437,540.721,538.743,0.0
54085.0,STARLINK-5166,PAYLOAD,2023-09-13 17:40:52,15.08848653,0.000138,53.2166,90.1047,87.4986,272.6164,0.00011089,1.478e-05,0.0,0 STARLINK-5166,1 54085U 22136AL  23256.73671623  .00001478  00000-0  11089-3 0  9991,2 54085  53.2166  90.1047 0001380  87.4986 272.6164 15.08848653 50384,6917.854,95.437,540.674,538.764,0.0
54085.0,STARLINK-5166,PAYLOAD,2023-09-13 19:16:15,15.08851297,0.0001303,53.2168,89.8072,98.8439,261.27,8.6257e-05,1.086e-05,0.0,0 STARLINK-5166,1 54085U 22136AL  23256.80295460  .00001086  00000-0  86257-4 0  9995,2 54085  53.2168  89.8072 0001303  98.8439 261.2700 15.08851297 49929,6917.846,95.437,540.612,538.809,0.0
54085.0,STARLINK-5166,PAYLOAD,2023-09-14 12:45:31,15.08833439,0.0001412,53.2165,86.537,83.486,276.6293,9.894e-06,-1.3e-06,0.0,0 STARLINK-5166,1 54085U 22136AL  23257.53161042 -.00000130  00000-0  98940-5 0  9997,2 54085  53.2165  86.5370 0001412  83.4860 276.6293 15.08833439 50039,6917.9,95.438,540.742,538.789,0.0
54085.0,STARLINK-5166,PAYLOAD,2023-09-14 19:07:04,15.08831832,0.0001272,53.2165,85.3486,80.6646,279.449,-7.7823e-05,-1.526e-05,0.0,0 STARLINK-5166,1 54085U 22136AL  23257.79657524 -.00001526  00000-0 -77823-4 0  9997,2 54085  53.2165  85.3486 0001272  80.6646 279.4490 15.08831832 50540,6917.905,95.438,540.65,538.89,0.0
54085.0,STARLINK-5166,PAYLOAD,2023-09-15 12:36:18,15.08843108,0.0001137,53.2166,82.0766,72.7902,287.3214,-6.3307e-05,-1.295e-05,0.0,0 STARLINK-5166,1 54085U 22136AL  23258.52521009 -.00001295  00000-0 -63307-4 0  9992,2 54085  53.2166  82.0766 0001137  72.7902 287.3214 15.08843108 50184,6917.871,95.437,540.522,538.949,0.0
54085.0,STARLINK-5166,PAYLOAD,2023-09-15 17:22:27,15.08844318,0.0001253,53.2165,81.1856,77.2383,282.8749,1.954e-05,2.3e-07,0.0,0 STARLINK-5166,1 54085U 22136AL  23258.72392624  .00000023  00000-0  19540-4 0  9999,2 54085  53.2165  81.1856 0001253  77.2383 282.8749 15.08844318 50687,6917.867,95.437,540.599,538.865,0.0
54085.0,STARLINK-5166,PAYLOAD,2023-09-16 12:27:05,15.08832711,0.000126,53.217,77.6168,73.2654,286.8476,0.00013634,1.882e-05,0.0,0 STARLINK-5166,1 54085U 22136AL  23259.51881150  .00001882  00000-0  13634-3 0  9995,2 54085  53.2170  77.6168 0001260  73.2654 286.8476 15.08832711 50331,6917.903,95.438,540.639,538.896,0.0
54085.0,STARLINK-5166,PAYLOAD,2023-09-16 18:48:37,15.08834988,0.0001242,53.217,76.4267,73.7035,286.4093,0.00014901,2.084e-05,0.0,0 STARLINK-5166,1 54085U 22136AL  23259.78377154  .00002084  00000-0  14901-3 0  9991,2 54085  53.2170  76.4267 0001242  73.7035 286.4093 15.08834988 50841,6917.896,95.438,540.62,538.902,0.0
54085.0,STARLINK-5166,PAYLOAD,2023-09-17 12:17:52,15.08840709,0.0001215,53.2163,73.1552,72.7087,287.4038,2.0548e-05,3.9e-07,0.0,0 STARLINK-5166,1 54085U 22136AL  23260.51241350  .00000039  00000-0  20548-4 0  9995,2 54085  53.2163  73.1552 0001215  72.7087 287.4038 15.08840709 50488,6917.878,95.438,540.584,538.903,0.0
54085.0,STARLINK-5166,PAYLOAD,2023-09-18 10:33:16,15.08829318,0.0001021,53.2174,68.9957,65.08,295.0299,0.00014447,2.012e-05,0.0,0 STARLINK-5166,1 54085U 22136AL  23261.43977555  .00002012  00000-0  14447-3 0  9993,2 54085  53.2174  68.9957 0001021  65.0800 295.0299 15.08829318 51099,6917.913,95.438,540.484,539.072,0.0
54085.0,STARLINK-5166,PAYLOAD,2023-09-18 18:30:12,15.0883995,0.0001389,53.218,67.5076,90.0852,270.0299,4.9108e-05,4.94e-06,0.0,0 STARLINK-5166,1 54085U 22136AL  23261.77097337  .00000494  00000-0  49108-4 0  9996,2 54085  53.2180  67.5076 0001389  90.0852 270.0299 15.08839950 50674,6917.881,95.438,540.706,538.785,0.0
54085.0,STARLINK-5166,PAYLOAD,2023-09-19 18:20:58,15.08851585,0.0001298,53.217,63.0464,90.5886,269.5255,0.00019406,2.803e-05,0.0,0 STARLINK-5166,1 54085U 22136AL  23262.76456469  .00002803  00000-0  19406-3 0  9994,2 54085  53.2170  63.0464 0001298  90.5886 269.5255 15.08851585 51298,6917.845,95.437,540.608,538.812,0.0
54085.0,STARLINK-5166,PAYLOAD,2023-09-20 11:50:14,15.08830162,0.0001593,53.2176,59.7758,77.2005,282.9165,2.7266e-05,1.46e-06,0.0,0 STARLINK-5166,1 54085U 22136AL  23263.49322109  .00000146  00000-0  27266-4 0  9990,2 54085  53.2176  59.7758 0001593  77.2005 282.9165 15.08830162 51405,6917.91,95.438,540.877,538.673,0.0
54085.0,STARLINK-5166,PAYLOAD,2023-09-20 18:11:46,15.08828184,0.0001274,53.217,58.5852,79.2702,280.8434,-6.4244e-05,-1.31e-05,0.0,0 STARLINK-5166,1 54085U 22136AL  23263.75818205 -.00001310  00000-0 -64244-4 0  9999,2 54085  53.2170  58.5852 0001274  79.2702 280.8434 15.08828184 50971,6917.917,95.438,540.663,538.9,0.0
54085.0,STARLINK-5166,PAYLOAD,2023-09-21 10:05:38,15.0883854,0.000134,53.2176,55.6117,76.8983,283.2158,0.00019809,2.866e-05,0.0,0 STARLINK-5166,1 54085U 22136AL  23264.42058319  .00002866  00000-0  19809-3 0  9997,2 54085  53.2176  55.6117 0001340  76.8983 283.2158 15.08838540 51076,6917.885,95.438,540.677,538.823,0.0
54085.0,STARLINK-5166,PAYLOAD,2023-09-21 16:27:10,15.08848775,0.0001336,53.2172,54.4223,71.9794,288.1344,0.00053968,8.314e-05,0.0,0 STARLINK-5166,1 54085U 22136AL  23264.68554102  .00008314  00000-0  53968-3 0  9994,2 54085  53.2172  54.4223 0001336  71.9794 288.1344 15.08848775 51586,6917.854,95.437,540.643,538.794,0.0
